{
    "CCSDS_OMM_VERS": "3.0",
    "COMMENT": "GENERATED VIA SPACE-TRACK.ORG API",
    "CREATION_DATE": "2025-05-22T17:14:14",
    "ORIGINATOR": "18 SPCS",
    "OBJECT_NAME": "GALILEO 25 (2C1)",
    "OBJECT_ID": "2018-060A",
    "CENTER_NAME": "EARTH",
    "REF_FRAME": "TEME",
    "TIME_SYSTEM": "UTC",
    "MEAN_ELEMENT_THEORY": "SGP4",
    "EPOCH": "2025-05-21T19:30:41.565312",
    "MEAN_MOTION": "1.70475632",
    "ECCENTRICITY": "0.00030770",
    "INCLINATION": "57.2731",
    "RA_OF_ASC_NODE": "352.3435",
    "ARG_OF_PERICENTER": "311.9671",
    "MEAN_ANOMALY": "48.0496",
    "EPHEMERIS_TYPE": "0",
    "CLASSIFICATION_TYPE": "U",
    "NORAD_CAT_ID": "43564",
    "ELEMENT_SET_NO": "999",
    "REV_AT_EPOCH": "4249",
    "BSTAR": "0.00000000000000",
    "MEAN_MOTION_DOT": "-0.00000067",
    "MEAN_MOTION_DDOT": "0.0000000000000",
    "SEMIMAJOR_AXIS": "29600.131",
    "PERIOD": "844.696",
    "APOAPSIS": "23231.104",
    "PERIAPSIS": "23212.888",
    "OBJECT_TYPE": "PAYLOAD",
    "RCS_SIZE": "LARGE",
    "COUNTRY_CODE": "ESA",
    "LAUNCH_DATE": "2018-07-25",
    "SITE": "FRGUI",
    "DECAY_DATE": null,
    "FILE": "4736220",
    "GP_ID": "288144545",
    "TLE_LINE0": "0 GALILEO 25 (2C1)",
    "TLE_LINE1": "1 43564U 18060A   25141.81298108 -.00000067  00000-0  00000-0 0  9991",
    "TLE_LINE2": "2 43564  57.2731 352.3435 0003077 311.9671  48.0496  1.70475632 42494"
}